     2              NAVIGATION DATA                         RINEX VERSION / TYPE
CCRINEXN V1.6.0 UX  CDDIS               07-MAR-19 17:31     PGM / RUN BY / DATE 
IGS BROADCAST EPHEMERIS FILE                                COMMENT             
    0.1024D-07  0.0000D+00 -0.5960D-07  0.0000D+00          ION ALPHA           
    0.9011D+05  0.0000D+00 -0.1966D+06  0.0000D+00          ION BETA            
    0.931322574615D-08 0.248689957516D-13   503808     2043 DELTA-UTC: A0,A1,T,W
    18                                                      LEAP SECONDS        
                                                            END OF HEADER       
 5 19  3  6  6  0  0.0 0.115949660540D-05 0.000000000000D+00 0.000000000000D+00
    0.880000000000D+02-0.955625000000D+02 0.473305439286D-08 0.149165429613D+00
   -0.486895442009D-05 0.554760673549D-02 0.873953104019D-05 0.515364672279D+04
    0.280800000000D+06-0.149011611938D-07-0.459321749097D+00 0.465661287308D-07
    0.949661470812D+00 0.202281250000D+03 0.711453099472D+00-0.827105850476D-08
   -0.405016881144D-09 0.100000000000D+01 0.204300000000D+04 0.000000000000D+00
    0.200000000000D+01 0.000000000000D+00-0.111758708954D-07 0.880000000000D+02
    0.273630000000D+06 0.000000000000D+00 0.000000000000D+00 0.000000000000D+00
 6 19  3  6  6  0  0.0 0.261612702161D-03-0.864019966684D-11 0.000000000000D+00
    0.930000000000D+02 0.256250000000D+01 0.474805483819D-08-0.258569821369D+01
    0.219792127609D-06 0.159570924006D-02 0.185146927834D-05 0.515353610992D+04
    0.280800000000D+06-0.111758708954D-07-0.148473612728D+01 0.614672899246D-07
    0.973898196392D+00 0.351656250000D+03-0.117506640360D+01-0.835570546087D-08
    0.485734508171D-10 0.100000000000D+01 0.204300000000D+04 0.000000000000D+00
    0.200000000000D+01 0.000000000000D+00 0.465661287308D-08 0.930000000000D+02
    0.273630000000D+06 0.000000000000D+00 0.000000000000D+00 0.000000000000D+00
 8 19  3  6  6  0  0.0-0.135123729706D-03-0.136424205266D-11 0.000000000000D+00
    0.220000000000D+02 0.100468750000D+03 0.422517599554D-08-0.330423487076D+00
    0.515580177307D-05 0.433712010272D-02 0.951811671257D-05 0.515370610237D+04
    0.280800000000D+06 0.540167093277D-07-0.254300588855D+01-0.875443220139D-07
    0.970347117824D+00 0.198156250000D+03-0.320299965231D+00-0.797640367780D-08
    0.411088552060D-09 0.100000000000D+01 0.204300000000D+04 0.000000000000D+00
    0.200000000000D+01 0.000000000000D+00 0.512227416039D-08 0.220000000000D+02
    0.273618000000D+06 0.400000000000D+01 0.000000000000D+00 0.000000000000D+00
10 19  3  6  6  0  0.0 0.103450845927D-03-0.829913915368D-11 0.000000000000D+00
    0.500000000000D+02-0.945312500000D+02 0.443339895458D-08 0.143285668976D+01
   -0.474974513054D-05 0.439747702330D-02 0.982917845249D-05 0.515367128754D+04
    0.280800000000D+06 0.260770320892D-07-0.436901357735D+00 0.108033418655D-06
    0.962839215969D+00 0.192750000000D+03-0.273355882864D+01-0.807497921244D-08
   -0.423231915022D-09 0.100000000000D+01 0.204300000000D+04 0.000000000000D+00
    0.200000000000D+01 0.000000000000D+00 0.186264514923D-08 0.500000000000D+02
    0.273618000000D+06 0.400000000000D+01 0.000000000000D+00 0.000000000000D+00
11 19  3  6  6  0  0.0-0.649836380035D-03 0.636646291241D-11 0.000000000000D+00
    0.470000000000D+02 0.885312500000D+02 0.602917971096D-08 0.278762356878D+01
    0.444054603577D-05 0.165513276588D-01 0.247173011303D-05 0.515368808746D+04
    0.280800000000D+06 0.290572643280D-06-0.192216874225D+01 0.745058059692D-08
    0.908350096450D+00 0.300375000000D+03 0.186764503642D+01-0.879750930872D-08
    0.280011663610D-09 0.100000000000D+01 0.204300000000D+04 0.000000000000D+00
    0.200000000000D+01 0.000000000000D+00-0.121071934700D-07 0.470000000000D+02
    0.273618000000D+06 0.400000000000D+01 0.000000000000D+00 0.000000000000D+00
12 19  3  6  6  0  0.0 0.262556131929D-03-0.329691829393D-11 0.000000000000D+00
    0.510000000000D+02-0.269375000000D+02 0.369908259579D-08 0.214607937298D+01
   -0.143051147461D-05 0.752317777369D-02 0.109020620584D-04 0.515369305611D+04
    0.280800000000D+06-0.260770320892D-07 0.277373427490D+01-0.126659870148D-06
    0.983917985642D+00 0.181125000000D+03 0.103966167591D+01-0.755317142165D-08
   -0.337871203238D-09 0.100000000000D+01 0.204300000000D+04 0.000000000000D+00
    0.200000000000D+01 0.000000000000D+00-0.125728547573D-07 0.510000000000D+02
    0.273630000000D+06 0.000000000000D+00 0.000000000000D+00 0.000000000000D+00
13 19  3  6  6  0  0.0-0.727297738195D-04 0.136424205266D-11 0.000000000000D+00
    0.120000000000D+02 0.444687500000D+02 0.423660484472D-08-0.171397256394D+01
    0.226497650147D-05 0.368463899940D-02 0.938586890697D-05 0.515366786957D+04
    0.280800000000D+06 0.651925802231D-07 0.734353861929D+00 0.447034835815D-07
    0.968219644337D+00 0.203562500000D+03 0.135994260126D+01-0.787604204078D-08
    0.391444876513D-09 0.100000000000D+01 0.204300000000D+04 0.000000000000D+00
    0.200000000000D+01 0.000000000000D+00-0.111758708954D-07 0.120000000000D+02
    0.273840000000D+06 0.000000000000D+00 0.000000000000D+00 0.000000000000D+00
14 19  3  6  6  0  0.0-0.893818214536D-04 0.136424205266D-11 0.000000000000D+00
    0.490000000000D+02 0.477187500000D+02 0.455876136840D-08-0.860994892556D+00
    0.249035656452D-05 0.102344963234D-01 0.949762761593D-05 0.515367786407D+04
    0.280800000000D+06-0.447034835815D-07 0.690523507944D+00 0.221654772759D-06
    0.960826408928D+00 0.198625000000D+03-0.194857881404D+01-0.819248402450D-08
    0.423589080478D-09 0.100000000000D+01 0.204300000000D+04 0.000000000000D+00
    0.200000000000D+01 0.000000000000D+00-0.977888703346D-08 0.490000000000D+02
    0.273600000000D+06 0.000000000000D+00 0.000000000000D+00 0.000000000000D+00
15 19  3  6  6  0  0.0-0.324898865074D-03 0.181898940355D-11 0.000000000000D+00
    0.630000000000D+02 0.380625000000D+02 0.502342345499D-08-0.150582535974D+01
    0.193715095520D-05 0.112190137152D-01 0.103525817394D-04 0.515365091133D+04
    0.280800000000D+06 0.240281224251D-06 0.520493920204D+00-0.104308128357D-06
    0.928401432423D+00 0.161906250000D+03 0.765672809460D+00-0.815105405394D-08
    0.366801006235D-09 0.100000000000D+01 0.204300000000D+04 0.000000000000D+00
    0.200000000000D+01 0.000000000000D+00-0.107102096081D-07 0.630000000000D+02
    0.278310000000D+06 0.000000000000D+00 0.000000000000D+00 0.000000000000D+00
16 19  3  6  6  0  0.0-0.234707258642D-04-0.261479726760D-11 0.000000000000D+00
    0.930000000000D+02-0.173750000000D+02 0.377158567311D-08 0.229640986177D+00
   -0.800937414169D-06 0.106687969528D-01 0.111628323793D-04 0.515378801727D+04
    0.280800000000D+06 0.875443220139D-07 0.279263979346D+01 0.152736902237D-06
    0.984298603279D+00 0.176937500000D+03 0.547533277907D+00-0.773067915667D-08
   -0.398588031363D-09 0.100000000000D+01 0.204300000000D+04 0.000000000000D+00
    0.200000000000D+01 0.000000000000D+00-0.107102096081D-07 0.930000000000D+02
    0.273618000000D+06 0.400000000000D+01 0.000000000000D+00 0.000000000000D+00
17 19  3  6  6  0  0.0 0.192499719560D-04 0.568434188608D-11 0.000000000000D+00
    0.390000000000D+02 0.919687500000D+02 0.408516998007D-08-0.675257044926D+00
    0.489689409733D-05 0.129238715162D-01 0.948272645474D-05 0.515370644379D+04
    0.280800000000D+06-0.173225998878D-06-0.247664574180D+01 0.894069671631D-07
    0.984043957518D+00 0.215718750000D+03-0.171719741031D+01-0.802390598409D-08
    0.447161474515D-09 0.100000000000D+01 0.204300000000D+04 0.000000000000D+00
    0.280000000000D+01 0.000000000000D+00-0.111758708954D-07 0.390000000000D+02
    0.273630000000D+06 0.000000000000D+00 0.000000000000D+00 0.000000000000D+00
18 19  3  6  6  0  0.0 0.321539118886D-04 0.352429196937D-11 0.000000000000D+00
    0.840000000000D+02 0.568750000000D+01 0.521235997286D-08-0.303060963015D+01
    0.262632966042D-06 0.150800702395D-01 0.110454857349D-05 0.515372184563D+04
    0.280800000000D+06 0.249594449997D-06-0.152980756683D+01-0.875443220139D-07
    0.952738129436D+00 0.352718750000D+03 0.137802604470D+01-0.845106630655D-08
    0.764317551180D-10 0.100000000000D+01 0.204300000000D+04 0.000000000000D+00
    0.200000000000D+01 0.000000000000D+00-0.605359673500D-08 0.840000000000D+02
    0.273618000000D+06 0.400000000000D+01 0.000000000000D+00 0.000000000000D+00
19 19  3  6  6  0  0.0-0.345458276570D-03 0.420641299570D-11 0.000000000000D+00
    0.570000000000D+02 0.929062500000D+02 0.403588229503D-08 0.213226175184D+01
    0.472925603390D-05 0.942234799732D-02 0.884570181370D-05 0.515362691498D+04
    0.280800000000D+06 0.540167093277D-07-0.243024686794D+01-0.176951289177D-06
    0.981773153170D+00 0.218468750000D+03 0.135313555128D+01-0.769353469820D-08
    0.413231504570D-09 0.100000000000D+01 0.204300000000D+04 0.000000000000D+00
    0.200000000000D+01 0.000000000000D+00-0.153668224812D-07 0.570000000000D+02
    0.273630000000D+06 0.000000000000D+00 0.000000000000D+00 0.000000000000D+00
20 19  3  6  6  0  0.0 0.522827263922D-03 0.341060513165D-12 0.000000000000D+00
    0.540000000000D+02-0.101218750000D+03 0.519807352717D-08-0.312175080602D+01
   -0.516325235367D-05 0.438605679665D-02 0.830180943012D-05 0.515368177605D+04
    0.280800000000D+06-0.223517417908D-07-0.552562664453D+00 0.126659870148D-06
    0.930377820119D+00 0.203406250000D+03 0.230153906322D+01-0.837249203300D-08
   -0.376801423396D-09 0.100000000000D+01 0.204300000000D+04 0.000000000000D+00
    0.200000000000D+01 0.000000000000D+00-0.838190317154D-08 0.540000000000D+02
    0.273600000000D+06 0.000000000000D+00 0.000000000000D+00 0.000000000000D+00
